ONEWEB-0424             
1 50497U 21132AE  23327.58158597  .00000079  00000+0  16806-3 0  9998
2 50497  87.9217 161.7799 0001715 105.4824 254.6498 13.18686870 98204
ONEWEB-0426             
1 50498U 21132AF  23327.54365587  .00000060  00000+0  12038-3 0  9997
2 50498  87.9211 161.8132 0002230  76.6199 283.5182 13.18685205 98143
ONEWEB-0427             
1 50499U 21132AG  23327.57947063 -.00000171  00000+0 -46658-3 0  9996
2 50499  87.9211 161.7804 0001851  87.8571 272.2773 13.18685335 98173
ONEWEB-0429             
1 50500U 21132AH  23327.56684560  .00000098  00000+0  21477-3 0  9996
2 50500  87.9200 161.7842 0001479  85.8601 274.2700 13.18689797 98149
ONEWEB-0430             
1 50501U 21132AJ  23327.55631067  .00000087  00000+0  18703-3 0  9996
2 50501  87.9216 161.7900 0001553  91.0389 269.0920 13.18683266 98182
ONEWEB-0432             
1 50502U 21132AK  23327.58791206  .00000068  00000+0  13993-3 0  9997
2 50502  87.9214 161.7792 0001507  89.5807 270.5497 13.18686625 98140
ONEWEB-0440             
1 50503U 21132AL  23327.57525546 -.00000268  00000+0 -71143-3 0  9994
2 50503  87.9142 161.7746 0001498  59.9249 300.2032 13.18685311 98136
ONEWEB-0450             
1 50504U 21132AM  23327.56895591  .00000100  00000+0  22045-3 0  9994
2 50504  87.9184 161.8049 0001159  89.7906 270.3359 13.18687679 98166
